KUIPER-00071            
1 64818U 25151C   25347.35280452 -.00003682  00000+0 -45380-3 0  9994
2 64818  51.9014 324.8580 0007063 306.9661  53.0654 14.79938021 22489
KUIPER-00072            
1 64819U 25151D   25347.30265013  .00005620  00000+0  82509-3 0  9992
2 64819  51.8993 304.6957 0002096 317.6672  42.4127 14.76720413 22760
KUIPER-00073            
1 64820U 25151E   25347.65669536 -.00007151  00000+0 -90951-3 0  9993
2 64820  51.9025 323.5098 0013500 330.9659  29.0551 14.79867765 23713
KUIPER-00074            
1 64821U 25151F   25347.60263745 -.00003067  00000+0 -37231-3 0  9995
2 64821  51.9006 311.2643 0013176 348.9309  11.1362 14.79954249 22695
KUIPER-00075            
1 64822U 25151G   25347.55287434  .00041463  00000+0  10404-2 0  9993
2 64822  51.8740 280.1890 0003427 358.9483   1.1497 15.39602818 23126
KUIPER-00076            
1 64823U 25151H   25347.59990442 -.00000280  00000+0 -75794-5 0  9998
2 64823  51.9002 313.7731 0005157 340.1596  19.9165 14.79951715 22669
KUIPER-00077            
1 64824U 25151J   25347.66211558  .00006416  00000+0  86930-3 0  9998
2 64824  51.9024 318.5021 0006155 303.1674  56.8697 14.79955204 22605
KUIPER-00078            
1 64825U 25151K   25347.22592615 -.00012995  00000+0 -16810-2 0  9997
2 64825  51.9024 317.9259 0008879   2.2840 357.8161 14.79846260 22576
